CCSDS_OMM_VERS = 2.0
CREATION_DATE  = 
ORIGINATOR     = 

OBJECT_NAME    = DELTA 1 R/B
OBJECT_ID      = 1989-089B
CENTER_NAME    = EARTH
REF_FRAME      = TEME
TIME_SYSTEM    = UTC
MEAN_ELEMENT_THEORY = SGP/SGP4

EPOCH          = 2025-11-19T04:28:21.031392
MEAN_MOTION    = 14.50545086
ECCENTRICITY   = .0070673
INCLINATION    = 97.0771
RA_OF_ASC_NODE = 183.1547
ARG_OF_PERICENTER = 111.2716
MEAN_ANOMALY   = 249.6048

EPHEMERIS_TYPE = 0
CLASSIFICATION_TYPE = U
NORAD_CAT_ID   = 20323
ELEMENT_SET_NO = 999
REV_AT_EPOCH   = 87971
BSTAR          = .1280976E-3
MEAN_MOTION_DOT = .483E-5
MEAN_MOTION_DDOT = 0

CCSDS_OMM_VERS = 2.0
CREATION_DATE  = 
ORIGINATOR     = 

OBJECT_NAME    = ARIANE 40 R/B
OBJECT_ID      = 1990-005H
CENTER_NAME    = EARTH
REF_FRAME      = TEME
TIME_SYSTEM    = UTC
MEAN_ELEMENT_THEORY = SGP/SGP4

EPOCH          = 2025-11-19T02:39:38.368800
MEAN_MOTION    = 14.39773020
ECCENTRICITY   = .00103609
INCLINATION    = 98.3278
RA_OF_ASC_NODE = 21.9531
ARG_OF_PERICENTER = 171.4274
MEAN_ANOMALY   = 188.7094

EPHEMERIS_TYPE = 0
CLASSIFICATION_TYPE = U
NORAD_CAT_ID   = 20443
ELEMENT_SET_NO = 999
REV_AT_EPOCH   = 87689
BSTAR          = .14148717E-3
MEAN_MOTION_DOT = .401E-5
MEAN_MOTION_DDOT = 0

CCSDS_OMM_VERS = 2.0
CREATION_DATE  = 
ORIGINATOR     = 

OBJECT_NAME    = DELTA 2 R/B(1)
OBJECT_ID      = 1990-008B
CENTER_NAME    = EARTH
REF_FRAME      = TEME
TIME_SYSTEM    = UTC
MEAN_ELEMENT_THEORY = SGP/SGP4

EPOCH          = 2025-11-19T06:42:32.769216
MEAN_MOTION    = 15.43085546
ECCENTRICITY   = .01163815
INCLINATION    = 35.6057
RA_OF_ASC_NODE = 171.7665
ARG_OF_PERICENTER = 324.1684
MEAN_ANOMALY   = 35.1284

EPHEMERIS_TYPE = 0
CLASSIFICATION_TYPE = U
NORAD_CAT_ID   = 20453
ELEMENT_SET_NO = 999
REV_AT_EPOCH   = 90900
BSTAR          = .60685466E-3
MEAN_MOTION_DOT = .35711E-3
MEAN_MOTION_DDOT = 0

CCSDS_OMM_VERS = 2.0
CREATION_DATE  = 
ORIGINATOR     = 

OBJECT_NAME    = COSMOS 2058
OBJECT_ID      = 1990-010A
CENTER_NAME    = EARTH
REF_FRAME      = TEME
TIME_SYSTEM    = UTC
MEAN_ELEMENT_THEORY = SGP/SGP4

EPOCH          = 2025-11-19T05:42:50.308992
MEAN_MOTION    = 15.10197688
ECCENTRICITY   = .00104029
INCLINATION    = 82.4632
RA_OF_ASC_NODE = 156.1518
ARG_OF_PERICENTER = 3.9856
MEAN_ANOMALY   = 356.1454

EPHEMERIS_TYPE = 0
CLASSIFICATION_TYPE = U
NORAD_CAT_ID   = 20465
ELEMENT_SET_NO = 999
REV_AT_EPOCH   = 92556
BSTAR          = .22747223E-3
MEAN_MOTION_DOT = .3747E-4
MEAN_MOTION_DDOT = 0

CCSDS_OMM_VERS = 2.0
CREATION_DATE  = 
ORIGINATOR     = 

OBJECT_NAME    = SL-14 R/B
OBJECT_ID      = 1990-010B
CENTER_NAME    = EARTH
REF_FRAME      = TEME
TIME_SYSTEM    = UTC
MEAN_ELEMENT_THEORY = SGP/SGP4

EPOCH          = 2025-11-19T04:54:51.006528
MEAN_MOTION    = 14.83441142
ECCENTRICITY   = .00185471
INCLINATION    = 82.5040
RA_OF_ASC_NODE = 11.1497
ARG_OF_PERICENTER = 306.6570
MEAN_ANOMALY   = 53.2939

EPHEMERIS_TYPE = 0
CLASSIFICATION_TYPE = U
NORAD_CAT_ID   = 20466
ELEMENT_SET_NO = 999
REV_AT_EPOCH   = 91210
BSTAR          = .66037756E-4
MEAN_MOTION_DOT = .567E-5
MEAN_MOTION_DDOT = 0

CCSDS_OMM_VERS = 2.0
CREATION_DATE  = 
ORIGINATOR     = 

OBJECT_NAME    = SL-14 R/B
OBJECT_ID      = 1990-018B
CENTER_NAME    = EARTH
REF_FRAME      = TEME
TIME_SYSTEM    = UTC
MEAN_ELEMENT_THEORY = SGP/SGP4

EPOCH          = 2025-11-19T06:02:01.203648
MEAN_MOTION    = 14.82013488
ECCENTRICITY   = .00179654
INCLINATION    = 82.5200
RA_OF_ASC_NODE = 326.3215
ARG_OF_PERICENTER = 95.2114
MEAN_ANOMALY   = 265.1151

EPHEMERIS_TYPE = 0
CLASSIFICATION_TYPE = U
NORAD_CAT_ID   = 20511
ELEMENT_SET_NO = 999
REV_AT_EPOCH   = 90622
BSTAR          = .67608288E-4
MEAN_MOTION_DOT = .561E-5
MEAN_MOTION_DDOT = 0

CCSDS_OMM_VERS = 2.0
CREATION_DATE  = 
ORIGINATOR     = 

OBJECT_NAME    = HST
OBJECT_ID      = 1990-037B
CENTER_NAME    = EARTH
REF_FRAME      = TEME
TIME_SYSTEM    = UTC
MEAN_ELEMENT_THEORY = SGP/SGP4

EPOCH          = 2025-11-19T00:21:37.191456
MEAN_MOTION    = 15.27597119
ECCENTRICITY   = .00015468
INCLINATION    = 28.4686
RA_OF_ASC_NODE = 73.9096
ARG_OF_PERICENTER = 347.7149
MEAN_ANOMALY   = 12.3408

EPHEMERIS_TYPE = 0
CLASSIFICATION_TYPE = U
NORAD_CAT_ID   = 20580
ELEMENT_SET_NO = 999
REV_AT_EPOCH   = 75636
BSTAR          = .2640283E-3
MEAN_MOTION_DOT = .7556E-4
MEAN_MOTION_DDOT = 0

CCSDS_OMM_VERS = 2.0
CREATION_DATE  = 
ORIGINATOR     = 

OBJECT_NAME    = SL-16 R/B
OBJECT_ID      = 1990-046B
CENTER_NAME    = EARTH
REF_FRAME      = TEME
TIME_SYSTEM    = UTC
MEAN_ELEMENT_THEORY = SGP/SGP4

EPOCH          = 2025-11-19T06:37:21.577152
MEAN_MOTION    = 14.14990085
ECCENTRICITY   = .00123163
INCLINATION    = 70.9957
RA_OF_ASC_NODE = 169.7976
ARG_OF_PERICENTER = 116.5675
MEAN_ANOMALY   = 243.6712

EPHEMERIS_TYPE = 0
CLASSIFICATION_TYPE = U
NORAD_CAT_ID   = 20625
ELEMENT_SET_NO = 999
REV_AT_EPOCH   = 83277
BSTAR          = .28809335E-4
MEAN_MOTION_DOT = .8E-7
MEAN_MOTION_DDOT = 0

CCSDS_OMM_VERS = 2.0
CREATION_DATE  = 
ORIGINATOR     = 

OBJECT_NAME    = COSMOS 2084
OBJECT_ID      = 1990-055A
CENTER_NAME    = EARTH
REF_FRAME      = TEME
TIME_SYSTEM    = UTC
MEAN_ELEMENT_THEORY = SGP/SGP4

EPOCH          = 2025-11-19T05:52:53.710176
MEAN_MOTION    = 15.04820741
ECCENTRICITY   = .0035468
INCLINATION    = 62.7916
RA_OF_ASC_NODE = 352.0361
ARG_OF_PERICENTER = 171.8450
MEAN_ANOMALY   = 188.3235

EPHEMERIS_TYPE = 0
CLASSIFICATION_TYPE = U
NORAD_CAT_ID   = 20663
ELEMENT_SET_NO = 999
REV_AT_EPOCH   = 91969
BSTAR          = .21209008E-3
MEAN_MOTION_DOT = .2845E-4
MEAN_MOTION_DDOT = 0

CCSDS_OMM_VERS = 2.0
CREATION_DATE  = 
ORIGINATOR     = 

OBJECT_NAME    = SL-6 R/B(2)
OBJECT_ID      = 1990-055D
CENTER_NAME    = EARTH
REF_FRAME      = TEME
TIME_SYSTEM    = UTC
MEAN_ELEMENT_THEORY = SGP/SGP4

EPOCH          = 2025-11-19T05:09:42.850656
MEAN_MOTION    = 15.02919227
ECCENTRICITY   = .00110024
INCLINATION    = 62.7837
RA_OF_ASC_NODE = 269.3370
ARG_OF_PERICENTER = 289.0986
MEAN_ANOMALY   = 70.8921

EPHEMERIS_TYPE = 0
CLASSIFICATION_TYPE = U
NORAD_CAT_ID   = 20666
ELEMENT_SET_NO = 999
REV_AT_EPOCH   = 92158
BSTAR          = .22764131E-3
MEAN_MOTION_DOT = .2879E-4
MEAN_MOTION_DDOT = 0

CCSDS_OMM_VERS = 2.0
CREATION_DATE  = 
ORIGINATOR     = 

OBJECT_NAME    = SL-8 R/B
OBJECT_ID      = 1990-078B
CENTER_NAME    = EARTH
REF_FRAME      = TEME
TIME_SYSTEM    = UTC
MEAN_ELEMENT_THEORY = SGP/SGP4

EPOCH          = 2025-11-19T03:38:30.411168
MEAN_MOTION    = 14.84576856
ECCENTRICITY   = .03793642
INCLINATION    = 82.9055
RA_OF_ASC_NODE = 350.3998
ARG_OF_PERICENTER = 24.9469
MEAN_ANOMALY   = 336.9557

EPHEMERIS_TYPE = 0
CLASSIFICATION_TYPE = U
NORAD_CAT_ID   = 20775
ELEMENT_SET_NO = 999
REV_AT_EPOCH   = 79287
BSTAR          = .6189401E-3
MEAN_MOTION_DOT = .2004E-3
MEAN_MOTION_DDOT = 0

CCSDS_OMM_VERS = 2.0
CREATION_DATE  = 
ORIGINATOR     = 

OBJECT_NAME    = SL-8 R/B
OBJECT_ID      = 1991-006B
CENTER_NAME    = EARTH
REF_FRAME      = TEME
TIME_SYSTEM    = UTC
MEAN_ELEMENT_THEORY = SGP/SGP4

EPOCH          = 2025-11-19T07:11:04.458624
MEAN_MOTION    = 13.77485880
ECCENTRICITY   = .00223284
INCLINATION    = 82.9420
RA_OF_ASC_NODE = 252.1474
ARG_OF_PERICENTER = 348.0974
MEAN_ANOMALY   = 123.9800

EPHEMERIS_TYPE = 0
CLASSIFICATION_TYPE = U
NORAD_CAT_ID   = 21088
ELEMENT_SET_NO = 999
REV_AT_EPOCH   = 74887
BSTAR          = .95478322E-4
MEAN_MOTION_DOT = .11E-5
MEAN_MOTION_DDOT = 0

