DELTA 1 R/B             
1 20323U 89089B   25323.18635453  .00000483  00000+0  12810-3 0  9993
2 20323  97.0771 183.1547 0070673 111.2716 249.6048 14.50545086879717
ARIANE 40 R/B           
1 20443U 90005H   25323.11086075  .00000401  00000+0  14149-3 0  9996
2 20443  98.3278  21.9531 0010360 171.4274 188.7094 14.39773020876890
DELTA 2 R/B(1)          
1 20453U 90008B   25323.27954594  .00035711  00000+0  60685-3 0  9995
2 20453  35.6057 171.7665 0116381 324.1684  35.1284 15.43085546909005
COSMOS 2058             
1 20465U 90010A   25323.23808228  .00003747  00000+0  22747-3 0  9990
2 20465  82.4632 156.1518 0010402   3.9856 356.1454 15.10197688925560
SL-14 R/B               
1 20466U 90010B   25323.20475702  .00000567  00000+0  66038-4 0  9994
2 20466  82.5040  11.1497 0018547 306.6570  53.2939 14.83441142912100
SL-14 R/B               
1 20511U 90018B   25323.25140282  .00000561  00000+0  67608-4 0  9998
2 20511  82.5200 326.3215 0017965  95.2114 265.1151 14.82013488906229
HST                     
1 20580U 90037B   25323.01501379  .00007556  00000+0  26403-3 0  9995
2 20580  28.4686  73.9096 0001546 347.7149  12.3408 15.27597119756368
SL-16 R/B               
1 20625U 90046B   25323.27594418  .00000008  00000+0  28809-4 0  9997
2 20625  70.9957 169.7976 0012316 116.5675 243.6712 14.14990085832776
COSMOS 2084             
1 20663U 90055A   25323.24506609  .00002845  00000+0  21209-3 0  9998
2 20663  62.7916 352.0361 0035468 171.8450 188.3235 15.04820741919698
SL-6 R/B(2)             
1 20666U 90055D   25323.21507929  .00002879  00000+0  22764-3 0  9998
2 20666  62.7837 269.3370 0011002 289.0986  70.8921 15.02919227921581
SL-8 R/B                
1 20775U 90078B   25323.15174087  .00020040  00000+0  61894-3 0  9999
2 20775  82.9055 350.3998 0379364  24.9469 336.9557 14.84576856792870
SL-8 R/B                
1 21088U 91006B   25323.29935716  .00000110  00000+0  95478-4 0  9990
2 21088  82.9420 252.1474 0022328 348.0974 123.9800 13.77485880748871
